IRIDIUM 116             
1 43072U 17083C   25281.14133256  .00000384  00000+0  13017-3 0  9997
2 43072  86.3934  67.3540 0001907  85.4915 274.6499 14.34218011408047
IRIDIUM 130             
1 43073U 17083D   25281.10961602  .00000358  00000+0  12087-3 0  9995
2 43073  86.3940  67.6182 0002091  81.0700 279.0733 14.34219572407984
IRIDIUM 151             
1 43074U 17083E   25281.15401426  .00000325  00000+0  10894-3 0  9992
2 43074  86.3932  67.4009 0001914  86.3849 273.7565 14.34216618408014
IRIDIUM 134             
1 43075U 17083F   25281.12230551  .00000141  00000+0  43269-4 0  9998
2 43075  86.3936  67.4189 0002155  83.6691 276.4751 14.34217250407975
IRIDIUM 137             
1 43076U 17083G   25280.99545213  .00000231  00000+0  75254-4 0  9996
2 43076  86.3936  67.5595 0001500  86.5244 273.6123 14.34217569408029
IRIDIUM 141             
1 43077U 17083H   25280.50072839 -.00000284  00000+0 -10834-3 0  9995
2 43077  86.3931  67.6114 0002096  95.6029 264.5406 14.34216362407950
IRIDIUM 153             
1 43078U 17083J   25280.73198564  .00000346  00000+0  11665-3 0  9995
2 43078  86.3996  35.9877 0002447  99.4682 260.6790 14.34218582409099
IRIDIUM 131             
1 43079U 17083K   25281.11596089  .00000148  00000+0  45636-4 0  9999
2 43079  86.3939  67.5234 0002013  94.6831 265.4595 14.34216693407979
